OBJECT_NAME,OBJECT_ID,EPOCH,MEAN_MOTION,ECCENTRICITY,INCLINATION,RA_OF_ASC_NODE,ARG_OF_PERICENTER,MEAN_ANOMALY,EPHEMERIS_TYPE,CLASSIFICATION_TYPE,NORAD_CAT_ID,ELEMENT_SET_NO,REV_AT_EPOCH,BSTAR,MEAN_MOTION_DOT,MEAN_MOTION_DDOT
LEMUR-2-STARLIGHT,2025-276DY,2026-07-12T15:59:40.842816,14.99335039,.0014811,97.5235,263.4338,54.7591,305.5016,0,U,66783,999,3401,.30466E-3,.3675E-4,0
LEMUR-2-TARTIFLETTE,2025-276DZ,2026-07-12T17:33:26.701056,14.99322354,.0013873,97.5235,263.5049,62.7426,297.5209,0,U,66784,999,3402,.29192E-3,.3516E-4,0
LEMUR-2-VUKASIN,2025-276EA,2026-07-12T18:29:38.429088,15.00534503,.0003464,97.5239,263.8969,61.5211,298.6362,0,U,66785,999,3398,.25592E-3,.317E-4,0
LEMUR-2-HOTSPUR-TOM,2025-276EB,2026-07-12T19:01:15.762720,14.99227481,.0013783,97.5223,263.5388,53.6491,306.6002,0,U,66786,999,3396,.28941E-3,.3477E-4,0
LEMUR-2-MYRA,2025-276EC,2026-07-12T17:39:39.104064,15.00572080,.0018605,97.5226,263.7829,61.6382,298.6715,0,U,66787,999,3404,.29064E-3,.3624E-4,0
LEMUR-2 FIKRETDENGIZ,2026-004A,2026-07-12T13:06:21.144384,14.88505387,.0010323,97.8023,191.7179,63.2919,296.9354,0,U,67363,999,2705,.26918E-3,.2449E-4,0
TWILIGHT-1 OBJECT B,2026-004B,2026-07-12T12:21:08.778816,14.87787971,.00099096,97.8073,191.6894,53.6882,306.5248,0,U,67364,999,2705,.11075664E-3,.957E-5,0
LEMUR-2-MARIO-SOUSA,2026-004C,2026-07-12T14:14:40.568640,14.88713778,.0009974,97.7995,191.7596,64.2837,295.9409,0,U,67365,999,2707,.26743E-3,.2445E-4,0
LEMUR-2-SONNENBLUME,2026-004E,2026-07-12T11:04:29.547840,14.88444773,.00095428,97.7992,191.6035,66.1852,294.0364,0,U,67367,999,2705,.17609793E-3,.158E-4,0
LEMUR-2-WOBLER,2026-004F,2026-07-12T14:03:17.181792,14.88686453,.0009638,97.8046,191.8741,57.3201,302.8944,0,U,67368,999,2707,.20439E-3,.1854E-4,0
LEMUR-2-GRAM-E-SUE,2026-004H,2026-07-12T13:51:41.241888,14.88582014,.0008718,97.7985,191.7344,68.0241,292.1901,0,U,67370,999,2707,.14278E-3,.1275E-4,0
LEMUR-2-KATIE,2026-004AA,2026-07-12T12:53:54.394368,14.90236221,.00037005,97.8041,192.2374,40.2246,319.9245,0,U,67387,999,2708,.31243607E-3,.2975E-4,0
LEMUR-2-HCS-BAZUS,2026-004AB,2026-07-12T12:51:34.328736,14.90252616,.00032174,97.8037,192.2146,39.3567,320.7884,0,U,67388,999,2708,.16705577E-3,.1566E-4,0
